{
  "type": "FeatureCollection",
  "features": [
    {
      "type": "Feature",
      "properties": {
        "norad_id": 41019,
        "name": "GPS BIIF-11 (PRN 10)",
        "group": "gnss",
        "lat": 18.321672943245314,
        "lon": 50.85899130616056,
        "alt_km": 20439.878062210504,
        "timestamp": "2025-12-03T20:47:58.465068+00:00",
        "meta_object_name": "GPS BIIF-11 (PRN 10)",
        "meta_object_id": "2015-062A",
        "meta_epoch": "2025-12-01T20:11:25.978560",
        "meta_mean_motion": 2.00566903,
        "meta_eccentricity": 0.01105097,
        "meta_inclination": 56.8244,
        "meta_ra_of_asc_node": 38.424,
        "meta_arg_of_pericenter": 229.6519,
        "meta_mean_anomaly": 129.4268,
        "meta_ephemeris_type": 0,
        "meta_classification_type": "U",
        "meta_norad_cat_id": 41019,
        "meta_element_set_no": 999,
        "meta_rev_at_epoch": 7387,
        "meta_bstar": 0,
        "meta_mean_motion_dot": -6.5e-07,
        "meta_mean_motion_ddot": 0,
        "tle_line1": "1 41019U 15062A   25335.84127290 -.00000065  00000+0  00000+0 0  9990",
        "tle_line2": "2 41019  56.8244  38.4240 0110509 229.6519 129.4268  2.00566903 73875"
      },
      "geometry": {
        "type": "Point",
        "coordinates": [
          50.85899130616056,
          18.321672943245314
        ]
      }
    },
    {
      "type": "Feature",
      "properties": {
        "norad_id": 41028,
        "name": "GSAT-15 (GAGAN/PRN 139)",
        "group": "gnss",
        "lat": 0.011896973924776854,
        "lon": 118.38630510158873,
        "alt_km": 35791.440713656564,
        "timestamp": "2025-12-03T20:47:58.465080+00:00",
        "meta_object_name": "GSAT-15 (GAGAN/PRN 139)",
        "meta_object_id": "2015-065A",
        "meta_epoch": "2025-12-03T10:46:37.837920",
        "meta_mean_motion": 1.00272014,
        "meta_eccentricity": 0.0002986,
        "meta_inclination": 0.0283,
        "meta_ra_of_asc_node": 82.5972,
        "meta_arg_of_pericenter": 150.8081,
        "meta_mean_anomaly": 94.2882,
        "meta_ephemeris_type": 0,
        "meta_classification_type": "U",
        "meta_norad_cat_id": 41028,
        "meta_element_set_no": 999,
        "meta_rev_at_epoch": 3683,
        "meta_bstar": 0,
        "meta_mean_motion_dot": -2.4e-06,
        "meta_mean_motion_ddot": 0,
        "tle_line1": "1 41028U 15065A   25337.44904905 -.00000240  00000+0  00000+0 0  9992",
        "tle_line2": "2 41028   0.0283  82.5972 0002986 150.8081  94.2882  1.00272014 36831"
      },
      "geometry": {
        "type": "Point",
        "coordinates": [
          118.38630510158873,
          0.011896973924776854
        ]
      }
    },
    {
      "type": "Feature",
      "properties": {
        "norad_id": 41174,
        "name": "GSAT0209 (GALILEO 12)",
        "group": "gnss",
        "lat": 54.81172809004511,
        "lon": -148.68821020446475,
        "alt_km": 23217.155528182513,
        "timestamp": "2025-12-03T20:47:58.465143+00:00",
        "meta_object_name": "GSAT0209 (GALILEO 12)",
        "meta_object_id": "2015-079A",
        "meta_epoch": "2025-12-01T22:43:10.411392",
        "meta_mean_motion": 1.70474306,
        "meta_eccentricity": 0.0002352,
        "meta_inclination": 55.7062,
        "meta_ra_of_asc_node": 106.6773,
        "meta_arg_of_pericenter": 357.4206,
        "meta_mean_anomaly": 2.5431,
        "meta_ephemeris_type": 0,
        "meta_classification_type": "U",
        "meta_norad_cat_id": 41174,
        "meta_element_set_no": 999,
        "meta_rev_at_epoch": 6141,
        "meta_bstar": 0,
        "meta_mean_motion_dot": 3.5e-07,
        "meta_mean_motion_ddot": 0,
        "tle_line1": "1 41174U 15079A   25335.94664828  .00000035  00000+0  00000+0 0  9990",
        "tle_line2": "2 41174  55.7062 106.6773 0002352 357.4206   2.5431  1.70474306 61412"
      },
      "geometry": {
        "type": "Point",
        "coordinates": [
          -148.68821020446475,
          54.81172809004511
        ]
      }
    },
    {
      "type": "Feature",
      "properties": {
        "norad_id": 41175,
        "name": "GSAT0208 (GALILEO 11)",
        "group": "gnss",
        "lat": -29.632215417109546,
        "lon": 83.77358877620368,
        "alt_km": 23222.055342620955,
        "timestamp": "2025-12-03T20:47:58.465158+00:00",
        "meta_object_name": "GSAT0208 (GALILEO 11)",
        "meta_object_id": "2015-079B",
        "meta_epoch": "2025-12-03T08:09:32.137920",
        "meta_mean_motion": 1.70474152,
        "meta_eccentricity": 0.0001907,
        "meta_inclination": 55.7055,
        "meta_ra_of_asc_node": 106.6362,
        "meta_arg_of_pericenter": 9.6551,
        "meta_mean_anomaly": 350.3047,
        "meta_ephemeris_type": 0,
        "meta_classification_type": "U",
        "meta_norad_cat_id": 41175,
        "meta_element_set_no": 999,
        "meta_rev_at_epoch": 6185,
        "meta_bstar": 0,
        "meta_mean_motion_dot": 2.2e-07,
        "meta_mean_motion_ddot": 0,
        "tle_line1": "1 41175U 15079B   25337.33995530  .00000022  00000+0  00000+0 0  9999",
        "tle_line2": "2 41175  55.7055 106.6362 0001907   9.6551 350.3047  1.70474152 61857"
      },
      "geometry": {
        "type": "Point",
        "coordinates": [
          83.77358877620368,
          -29.632215417109546
        ]
      }
    },
    {
      "type": "Feature",
      "properties": {
        "norad_id": 41241,
        "name": "IRNSS-1E",
        "group": "gnss",
        "lat": 31.390690858105827,
        "lon": 133.5792588634497,
        "alt_km": 35816.354181214025,
        "timestamp": "2025-12-03T20:47:58.465173+00:00",
        "meta_object_name": "IRNSS-1E",
        "meta_object_id": "2016-003A",
        "meta_epoch": "2025-12-02T15:46:14.293632",
        "meta_mean_motion": 1.00278203,
        "meta_eccentricity": 0.00219463,
        "meta_inclination": 32.8036,
        "meta_ra_of_asc_node": 62.6001,
        "meta_arg_of_pericenter": 186.4596,
        "meta_mean_anomaly": 170.9534,
        "meta_ephemeris_type": 0,
        "meta_classification_type": "U",
        "meta_norad_cat_id": 41241,
        "meta_element_set_no": 999,
        "meta_rev_at_epoch": 3610,
        "meta_bstar": 0,
        "meta_mean_motion_dot": -3.03e-06,
        "meta_mean_motion_ddot": 0,
        "tle_line1": "1 41241U 16003A   25336.65710988 -.00000303  00000+0  00000+0 0  9990",
        "tle_line2": "2 41241  32.8036  62.6001 0021946 186.4596 170.9534  1.00278203 36104"
      },
      "geometry": {
        "type": "Point",
        "coordinates": [
          133.5792588634497,
          31.390690858105827
        ]
      }
    },
    {
      "type": "Feature",
      "properties": {
        "norad_id": 41328,
        "name": "GPS BIIF-12 (PRN 32)",
        "group": "gnss",
        "lat": -29.614854864493616,
        "lon": 74.11454564125053,
        "alt_km": 20141.191319309593,
        "timestamp": "2025-12-03T20:47:58.465185+00:00",
        "meta_object_name": "GPS BIIF-12 (PRN 32)",
        "meta_object_id": "2016-007A",
        "meta_epoch": "2025-12-01T22:09:54.041760",
        "meta_mean_motion": 2.0056114,
        "meta_eccentricity": 0.00916487,
        "meta_inclination": 55.3999,
        "meta_ra_of_asc_node": 97.2864,
        "meta_arg_of_pericenter": 243.3101,
        "meta_mean_anomaly": 115.7282,
        "meta_ephemeris_type": 0,
        "meta_classification_type": "U",
        "meta_norad_cat_id": 41328,
        "meta_element_set_no": 999,
        "meta_rev_at_epoch": 7188,
        "meta_bstar": 0,
        "meta_mean_motion_dot": 1.1e-07,
        "meta_mean_motion_ddot": 0,
        "tle_line1": "1 41328U 16007A   25335.92354215  .00000011  00000+0  00000+0 0  9991",
        "tle_line2": "2 41328  55.3999  97.2864 0091648 243.3101 115.7282  2.00561140 71887"
      },
      "geometry": {
        "type": "Point",
        "coordinates": [
          74.11454564125053,
          -29.614854864493616
        ]
      }
    },
    {
      "type": "Feature",
      "properties": {
        "norad_id": 41330,
        "name": "COSMOS 2514 (751)",
        "group": "gnss",
        "lat": -19.631233607113884,
        "lon": 149.21963510013362,
        "alt_km": 19102.579783834404,
        "timestamp": "2025-12-03T20:47:58.465197+00:00",
        "meta_object_name": "COSMOS 2514 (751)",
        "meta_object_id": "2016-008A",
        "meta_epoch": "2025-12-02T04:41:58.161984",
        "meta_mean_motion": 2.13102491,
        "meta_eccentricity": 0.00124931,
        "meta_inclination": 65.1398,
        "meta_ra_of_asc_node": 319.7653,
        "meta_arg_of_pericenter": 219.8518,
        "meta_mean_anomaly": 140.0636,
        "meta_ephemeris_type": 0,
        "meta_classification_type": "U",
        "meta_norad_cat_id": 41330,
        "meta_element_set_no": 999,
        "meta_rev_at_epoch": 7642,
        "meta_bstar": 0,
        "meta_mean_motion_dot": -3.3e-07,
        "meta_mean_motion_ddot": 0,
        "tle_line1": "1 41330U 16008A   25336.19581206 -.00000033  00000+0  00000+0 0  9992",
        "tle_line2": "2 41330  65.1398 319.7653 0012493 219.8518 140.0636  2.13102491 76424"
      },
      "geometry": {
        "type": "Point",
        "coordinates": [
          149.21963510013362,
          -19.631233607113884
        ]
      }
    }
  ]
}